{"type":"FeatureCollection","name":"catalunya_simplificat_100m","features":[{"type":"Feature","geometry":{"type":"MultiPolygon","coordinates":[[[[0.6445400000000001,40.57426000000001],[0.644720000000001,40.574380000000005],[0.6441500000000006,40.57462],[0.6445400000000001,40.57426000000001]]],[[[0.6462900000000007,40.57457],[0.6467300000000015,40.57477999999999],[0.6461500000000013,40.57536999999999],[0.6462900000000007,40.57457]]],[[[0.642040000000001,40.57519],[0.6420300000000001,40.57543000000001],[0.6417000000000005,40.57563999999999],[0.642040000000001,40.57519]]],[[[0.6411700000000012,40.575309999999995],[0.6412399999999997,40.57551],[0.6408600000000004,40.57565000000001],[0.6411700000000012,40.575309999999995]]],[[[0.6427000000000003,40.57518],[0.6428500000000006,40.575459999999985],[0.6416200000000002,40.57646999999999],[0.6427000000000003,40.57518]]],[[[0.6418300000000005,40.57584999999999],[0.6418700000000012,40.57614999999999],[0.6413999999999994,40.57649],[0.6418300000000005,40.57584999999999]]],[[[0.6445499999999998,40.57590999999999],[0.6456699999999999,40.57655],[0.64394,40.57662],[0.6445499999999998,40.57590999999999]]],[[[0.6435800000000006,40.57597],[0.6428000000000005,40.57692],[0.6425199999999998,40.57692000000001],[0.6426000000000012,40.576649999999994],[0.6435800000000006,40.57597]]],[[[0.6418400000000002,40.57692000000001],[0.6421000000000009,40.57702999999999],[0.6418299999999996,40.57719],[0.6418400000000002,40.57692000000001]]],[[[0.6480800000000004,40.57715],[0.6487299999999998,40.57705000000001],[0.6480200000000002,40.57733],[0.6480800000000004,40.57715]]],[[[0.6145300000000006,40.57683999999999],[0.6151200000000009,40.57681],[0.6148699999999999,40.57705],[0.6145300000000006,40.57683999999999]]],[[[0.6490999999999998,40.577549999999995],[0.6492300000000005,40.57773999999999],[0.6487299999999995,40.57797],[0.6490999999999998,40.577549999999995]]],[[[0.6151499999999999,40.57658000000001],[0.6162799999999999,40.576649999999994],[0.6153199999999998,40.57741],[0.6151499999999999,40.57658000000001]]],[[[0.61611,40.57757999999999],[0.6164400000000004,40.57755999999999],[0.6163100000000005,40.57771],[0.61611,40.57757999999999]]],[[[0.64348,40.57636],[0.6432800000000012,40.577159999999985],[0.6419499999999998,40.57854],[0.64348,40.57636]]],[[[0.6467400000000004,40.57827],[0.6468999999999998,40.57836],[0.6464800000000009,40.57886],[0.6467400000000004,40.57827]]],[[[0.648420000000001,40.57876999999998],[0.6487900000000005,40.578630000000004],[0.6481899999999993,40.57917],[0.648420000000001,40.57876999999998]]],[[[0.6436699999999999,40.57884],[0.6435799999999998,40.57918],[0.6433800000000002,40.5792],[0.6436699999999999,40.57884]]],[[[0.6455500000000004,40.57862],[0.6457700000000008,40.579269999999994],[0.6454200000000009,40.579329999999985],[0.6455500000000004,40.57862]]],[[[0.64843,40.57911999999999],[0.649080000000001,40.57895],[0.6480200000000009,40.580169999999995],[0.64843,40.57911999999999]]],[[[0.6488400000000002,40.579339999999995],[0.6492199999999999,40.579640000000005],[0.6484600000000005,40.58027],[0.6488400000000002,40.579339999999995]]],[[[0.6492099999999997,40.57990000000001],[0.6493299999999995,40.580070000000006],[0.6490200000000012,40.58028999999999],[0.6492099999999997,40.57990000000001]]],[[[0.6377900000000005,40.580029999999994],[0.6384700000000005,40.57985999999999],[0.6378400000000015,40.580149999999996],[0.6377900000000005,40.580029999999994]]],[[[0.6385099999999997,40.58039000000001],[0.6388000000000009,40.58036999999999],[0.638450000000001,40.58065999999999],[0.6385099999999997,40.58039000000001]]],[[[0.6427399999999993,40.58008],[0.642429999999999,40.580740000000006],[0.6423500000000006,40.58077999999999],[0.6427399999999993,40.58008]]],[[[0.6555200000000001,40.57862999999999],[0.6559400000000001,40.57991],[0.653220000000001,40.58136999999999],[0.6540900000000008,40.579679999999996],[0.6555200000000001,40.57862999999999]]],[[[0.6350100000000004,40.57737],[0.63525,40.58134],[0.6334500000000001,40.57982],[0.6338099999999994,40.57831],[0.6350100000000004,40.57737]]],[[[0.6342500000000002,40.58151999999999],[0.6346699999999998,40.58119999999999],[0.6347700000000005,40.58143999999999],[0.6342500000000002,40.58151999999999]]],[[[0.6519200000000006,40.58138],[0.6528000000000006,40.58151],[0.6514300000000005,40.58189],[0.6519200000000006,40.58138]]],[[[0.6381800000000004,40.58163],[0.6384000000000001,40.58173],[0.6380800000000002,40.58180999999999],[0.6381800000000004,40.58163]]],[[[0.6298499999999998,40.58148],[0.6317199999999994,40.580929999999995],[0.6313199999999998,40.58163],[0.6298499999999998,40.58148]]],[[[0.6328899999999995,40.58136999999999],[0.6338399999999996,40.581329999999994],[0.6335699999999999,40.581789999999984],[0.6328899999999995,40.58136999999999]]],[[[0.6366999999999996,40.581540000000004],[0.6369299999999998,40.58185],[0.6367699999999993,40.58193],[0.6366999999999996,40.581540000000004]]],[[[0.6337500000000007,40.58178],[0.6340800000000008,40.581689999999995],[0.6337400000000002,40.581939999999996],[0.6337500000000007,40.58178]]],[[[0.63873,40.58195],[0.6391599999999995,40.58199999999999],[0.6386299999999998,40.58215],[0.63873,40.58195]]],[[[0.6521100000000005,40.58219999999999],[0.6522100000000007,40.58238999999999],[0.6517900000000002,40.582449999999994],[0.6521100000000005,40.58219999999999]]],[[[0.6319000000000004,40.58135],[0.6330500000000004,40.58207],[0.6312000000000004,40.58212000000001],[0.6319000000000004,40.58135]]],[[[0.6344200000000013,40.58165],[0.6343700000000004,40.58221999999999],[0.6340700000000001,40.58234999999999],[0.6344200000000013,40.58165]]],[[[0.6422100000000013,40.581669999999995],[0.6420600000000006,40.58227000000001],[0.6415099999999998,40.58261],[0.6422100000000013,40.581669999999995]]],[[[0.6348200000000009,40.581869999999995],[0.6357099999999996,40.582259999999984],[0.6346199999999997,40.58248999999999],[0.6348200000000009,40.581869999999995]]],[[[0.6451100000000001,40.58244],[0.6454000000000001,40.58329],[0.6449100000000012,40.58309999999999],[0.6451100000000001,40.58244]]],[[[0.6497800000000009,40.58332],[0.6495600000000001,40.5829],[0.6500200000000005,40.58305],[0.6497800000000009,40.58332]]],[[[0.6554800000000002,40.58210999999999],[0.6534700000000004,40.58334000000001],[0.655790000000001,40.58132],[0.6554800000000002,40.58210999999999]]],[[[0.6431200000000002,40.58346000000001],[0.6428100000000014,40.58360999999999],[0.6431900000000004,40.58292999999999],[0.6431200000000002,40.58346000000001]]],[[[0.6453700000000003,40.583569999999995],[0.6445200000000009,40.584179999999996],[0.6440799999999998,40.58389],[0.6453700000000003,40.583569999999995]]],[[[0.6468400000000003,40.58407999999999],[0.6460500000000003,40.58457],[0.6460200000000001,40.58403],[0.6468400000000003,40.58407999999999]]],[[[0.6479500000000012,40.58338],[0.6476800000000004,40.58481999999999],[0.6470799999999994,40.584450000000004],[0.6479500000000012,40.58338]]],[[[0.6524000000000002,40.58523],[0.6497999999999997,40.585170000000005],[0.649010000000001,40.58431000000001],[0.6519600000000001,40.58494],[0.6546200000000009,40.58373],[0.6524000000000002,40.58523]]],[[[0.7165299999999999,40.603260000000006],[0.717230000000001,40.60276],[0.7170899999999997,40.60320000000001],[0.7165299999999999,40.603260000000006]]],[[[0.7072600000000001,40.63534],[0.7076800000000002,40.635279999999995],[0.7076300000000005,40.63561],[0.7072600000000001,40.63534]]],[[[0.7390200000000002,40.637469999999986],[0.7402699999999998,40.63741999999999],[0.7392000000000003,40.638259999999995],[0.7390200000000002,40.637469999999986]]],[[[0.7705700000000005,40.76314],[0.7711199999999998,40.76331],[0.7705400000000004,40.763349999999996],[0.7705700000000005,40.76314]]],[[[0.7581100000000001,40.762980000000006],[0.75808,40.76369999999999],[0.7579699999999999,40.76376],[0.7581100000000001,40.762980000000006]]],[[[0.7521800000000007,40.7637],[0.7504500000000008,40.76418999999999],[0.7504300000000013,40.76417],[0.7504700000000004,40.76366000000001],[0.7521800000000007,40.7637]]],[[[0.7677300000000006,40.76442],[0.767930000000001,40.764359999999996],[0.7676099999999996,40.76477],[0.7677300000000006,40.76442]]],[[[0.7224200000000002,40.77833999999999],[0.7228199999999998,40.778499999999994],[0.7223100000000001,40.77857],[0.7224200000000002,40.77833999999999]]],[[[0.7342900000000003,40.785779999999995],[0.7346899999999996,40.78600000000001],[0.7338800000000001,40.78618],[0.7342900000000003,40.785779999999995]]],[[[0.7339800000000003,40.787009999999995],[0.7345400000000004,40.78714999999999],[0.7336800000000008,40.787499999999994],[0.7339800000000003,40.787009999999995]]],[[[0.7333000000000007,40.78722],[0.7312599999999996,40.789190000000005],[0.7289500000000004,40.78782],[0.7308899999999997,40.78658],[0.73108,40.787650000000006],[0.7333000000000007,40.78722]]],[[[1.0364400000000007,41.05758999999999],[1.0369899999999999,41.05785],[1.0362300000000004,41.057690000000015],[1.0364400000000007,41.05758999999999]]],[[[1.0414100000000002,41.05964],[1.0420100000000003,41.05971999999999],[1.04202,41.05982000000001],[1.0414100000000002,41.05964]]],[[[1.11288,41.07045999999999],[1.1140600000000003,41.07056999999999],[1.1141899999999998,41.07070999999999],[1.11288,41.07045999999999]]],[[[1.6420400000000002,41.19304],[1.6447600000000002,41.19349],[1.6418800000000002,41.193130000000004],[1.6420400000000002,41.19304]]],[[[1.6518500000000003,41.19469],[1.6509099999999997,41.19507999999999],[1.6502000000000001,41.19459],[1.6515099999999998,41.19439999999999],[1.6518500000000003,41.19469]]],[[[1.6615900000000001,41.19513],[1.6629399999999999,41.195250000000016],[1.6629900000000006,41.19527999999999],[1.6615900000000001,41.19513]]],[[[1.6652799999999996,41.19559],[1.6665600000000003,41.195739999999994],[1.6652300000000007,41.19565999999999],[1.6652799999999996,41.19559]]],[[[1.6689100000000003,41.19615],[1.6702600000000007,41.19613999999999],[1.6703800000000004,41.196220000000004],[1.6689100000000003,41.19615]]],[[[2.1699200000000003,41.326570000000004],[2.17575,41.351060000000004],[2.18329,41.363260000000004],[2.183,41.36522],[2.17171,41.34646],[2.16944,41.326440000000005],[2.1725500000000006,41.31704],[2.1699200000000003,41.326570000000004]]],[[[2.19372,41.3762],[2.1946300000000005,41.37701],[2.19454,41.37729000000001],[2.19372,41.3762]]],[[[2.2058800000000005,41.389179999999996],[2.20622,41.38939],[2.2057700000000002,41.38934999999999],[2.2058800000000005,41.389179999999996]]],[[[2.22196,41.40358],[2.22311,41.40488],[2.2230600000000003,41.405100000000004],[2.22196,41.40358]]],[[[2.2262800000000005,41.40732],[2.2265199999999994,41.40715],[2.2264300000000006,41.40769],[2.2262800000000005,41.40732]]],[[[2.2267499999999996,41.407849999999996],[2.2270100000000004,41.40789999999999],[2.22694,41.40826],[2.2267499999999996,41.407849999999996]]],[[[2.22698,41.408409999999996],[2.2280500000000005,41.4091],[2.22777,41.409639999999996],[2.22698,41.408409999999996]]],[[[2.79214,41.67049],[2.7924800000000003,41.670449999999995],[2.7923500000000003,41.6708],[2.79214,41.67049]]],[[[2.80321,41.67305],[2.8037900000000002,41.67324],[2.80312,41.67312],[2.80321,41.67305]]],[[[2.80727,41.67696],[2.8082699999999994,41.677229999999994],[2.8079,41.67751],[2.80727,41.67696]]],[[[2.8154900000000005,41.681969999999986],[2.8160000000000003,41.682109999999994],[2.8155100000000006,41.682179999999995],[2.8154900000000005,41.681969999999986]]],[[[2.8158899999999996,41.68279999999999],[2.81616,41.68303000000001],[2.81584,41.68285],[2.8158899999999996,41.68279999999999]]],[[[2.81867,41.68683],[2.81874,41.68657999999999],[2.8191199999999994,41.68688],[2.81867,41.68683]]],[[[2.8268799999999996,41.69002],[2.8273199999999994,41.69018],[2.8267200000000003,41.69022999999999],[2.8268799999999996,41.69002]]],[[[2.8290700000000006,41.69097],[2.8295300000000005,41.69107999999999],[2.82916,41.69127999999999],[2.8290700000000006,41.69097]]],[[[2.87187,41.700190000000006],[2.87235,41.70020999999999],[2.8721999999999994,41.700410000000005],[2.87187,41.700190000000006]]],[[[2.8863100000000004,41.70146],[2.88677,41.7014],[2.8869000000000002,41.70150000000001],[2.8863100000000004,41.70146]]],[[[2.8786300000000002,41.70154],[2.87937,41.701510000000006],[2.8793,41.701649999999994],[2.8786300000000002,41.70154]]],[[[2.89262,41.703689999999995],[2.89296,41.70357],[2.8929899999999997,41.70381],[2.89262,41.703689999999995]]],[[[2.8958200000000005,41.70376],[2.8962800000000004,41.70374],[2.8963399999999995,41.70385999999999],[2.8958200000000005,41.70376]]],[[[2.91155,41.70771],[2.91231,41.70756],[2.9115800000000003,41.70776000000001],[2.91155,41.70771]]],[[[2.9266100000000006,41.713570000000004],[2.92737,41.71353999999999],[2.9266699999999997,41.71371000000001],[2.9266100000000006,41.713570000000004]]],[[[2.9396000000000004,41.720189999999995],[2.9403400000000004,41.720139999999994],[2.9399800000000003,41.720659999999995],[2.9396000000000004,41.720189999999995]]],[[[2.9410900000000004,41.72464],[2.94131,41.7244],[2.9414100000000003,41.72451],[2.9410900000000004,41.72464]]],[[[2.94576,41.7258],[2.9461599999999994,41.72588],[2.94581,41.72596999999999],[2.94576,41.7258]]],[[[2.96503,41.74529],[2.96547,41.74518999999999],[2.9654600000000007,41.745360000000005],[2.96503,41.74529]]],[[[2.98148,41.75737999999999],[2.98199,41.75738],[2.98199,41.75755],[2.98148,41.75737999999999]]],[[[2.98071,41.75784],[2.98128,41.757850000000005],[2.98089,41.75811],[2.98071,41.75784]]],[[[3.03204,41.77176],[3.0325700000000007,41.77219000000001],[3.03246,41.77254999999999],[3.03204,41.77176]]],[[[3.04674,41.783339999999995],[3.04723,41.78327],[3.04726,41.78337],[3.04674,41.783339999999995]]],[[[3.05664,41.78676999999998],[3.0569100000000002,41.7869],[3.0563499999999997,41.78697],[3.05664,41.78676999999998]]],[[[3.05656,41.78711],[3.0561700000000003,41.78737999999999],[3.0556899999999994,41.78708],[3.05656,41.78711]]],[[[3.05926,41.79195],[3.0595,41.79174999999999],[3.05968,41.79201],[3.05926,41.79195]]],[[[3.05823,41.80412999999999],[3.0587700000000004,41.804309999999994],[3.05747,41.804539999999996],[3.05823,41.80412999999999]]],[[[3.08075,41.82405000000001],[3.08147,41.82399999999999],[3.08089,41.82419999999999],[3.08075,41.82405000000001]]],[[[3.1871,41.862660000000005],[3.18739,41.862959999999994],[3.18708,41.86283999999999],[3.1871,41.862660000000005]]],[[[3.1784899999999996,41.86721],[3.17939,41.86729],[3.1791,41.86751999999999],[3.1784899999999996,41.86721]]],[[[3.17848,41.86779],[3.1791099999999997,41.86771000000001],[3.17902,41.86826],[3.17848,41.86779]]],[[[3.1779600000000006,41.87083],[3.17839,41.87084999999999],[3.1783700000000006,41.87106999999999],[3.1779600000000006,41.87083]]],[[[3.2178599999999995,41.92211],[3.21948,41.92163999999999],[3.2200299999999995,41.92222999999999],[3.2178599999999995,41.92211]]],[[[3.2172699999999996,41.92414999999998],[3.2176999999999993,41.92407999999999],[3.2181800000000003,41.92426999999999],[3.2172699999999996,41.92414999999998]]],[[[3.2176700000000005,41.92495999999999],[3.2180299999999997,41.92475999999999],[3.2183,41.92489],[3.2176700000000005,41.92495999999999]]],[[[3.21766,41.93784999999999],[3.2182799999999996,41.93814999999999],[3.21797,41.93821],[3.21766,41.93784999999999]]],[[[3.22788,42.04175999999999],[3.22878,42.0418],[3.22828,42.04204],[3.22788,42.04175999999999]]],[[[3.22693,42.04189],[3.22768,42.04207],[3.2272700000000003,42.04231],[3.22693,42.04189]]],[[[3.22725,42.04413999999999],[3.22424,42.0444],[3.2238599999999997,42.0436],[3.2252400000000003,42.04259],[3.22725,42.04413999999999]]],[[[3.22591,42.04889],[3.22423,42.04993],[3.219,42.04807000000001],[3.22295,42.04485],[3.22591,42.04889]]],[[[3.2101,42.06288],[3.21064,42.062889999999996],[3.21019,42.06298000000001],[3.2101,42.06288]]],[[[3.2049000000000003,42.07366],[3.2056799999999996,42.074149999999996],[3.20482,42.07439],[3.2049000000000003,42.07366]]],[[[3.1972899999999997,42.084759999999996],[3.19806,42.084499999999984],[3.19765,42.08499],[3.1972899999999997,42.084759999999996]]],[[[3.16615,42.11372],[3.16652,42.11386999999999],[3.16629,42.11406999999999],[3.16615,42.11372]]],[[[3.1315899999999997,42.12859999999999],[3.1317800000000005,42.12882999999999],[3.13133,42.12894999999999],[3.1315899999999997,42.12859999999999]]],[[[3.12319,42.13591999999999],[3.12383,42.13573],[3.12374,42.136149999999994],[3.12319,42.13591999999999]]],[[[3.26336,42.23732],[3.2643200000000006,42.23727],[3.2643499999999994,42.23729999999998],[3.26336,42.23732]]],[[[3.20299,42.23993],[3.2032899999999995,42.24017],[3.2027000000000005,42.24016000000001],[3.20299,42.23993]]],[[[3.20331,42.240809999999996],[3.2034499999999997,42.24026],[3.2036,42.24086],[3.20331,42.240809999999996]]],[[[3.1977400000000005,42.24269999999999],[3.1985900000000003,42.242889999999996],[3.1981499999999996,42.24304999999999],[3.1977400000000005,42.24269999999999]]],[[[3.28313,42.26013],[3.2836299999999996,42.26031],[3.2830999999999997,42.260189999999994],[3.28313,42.26013]]],[[[3.2832600000000003,42.27376999999999],[3.28378,42.27377999999999],[3.28346,42.27392],[3.2832600000000003,42.27376999999999]]],[[[3.2911300000000003,42.27962999999999],[3.2915800000000006,42.279489999999996],[3.29149,42.27981],[3.2911300000000003,42.27962999999999]]],[[[3.2931599999999994,42.28038000000001],[3.29358,42.28153999999999],[3.2922300000000004,42.28246],[3.29172,42.28134],[3.2931599999999994,42.28038000000001]]],[[[3.27903,42.281969999999994],[3.2793700000000006,42.282379999999996],[3.2784700000000004,42.28253],[3.27903,42.281969999999994]]],[[[3.29701,42.28899],[3.2969600000000003,42.28962],[3.2967,42.28927000000001],[3.29701,42.28899]]],[[[3.29639,42.29136],[3.2972299999999994,42.29147],[3.296870000000001,42.29167],[3.29639,42.29136]]],[[[3.30843,42.29161],[3.3093199999999996,42.29139999999999],[3.3082299999999996,42.292449999999995],[3.30843,42.29161]]],[[[3.30934,42.29171],[3.30908,42.292399999999994],[3.3088499999999996,42.29246],[3.30934,42.29171]]],[[[3.296899999999999,42.293299999999995],[3.29713,42.29341],[3.2967500000000003,42.29364],[3.296899999999999,42.293299999999995]]],[[[3.2964900000000004,42.290379999999985],[3.2963299999999998,42.29137],[3.2968000000000006,42.29336],[3.29467,42.29424000000001],[3.29321,42.292629999999996],[3.2964900000000004,42.290379999999985]]],[[[3.2965899999999997,42.29391],[3.2961000000000005,42.29513000000001],[3.2954399999999997,42.29536000000001],[3.2965899999999997,42.29391]]],[[[3.3008300000000004,42.30516],[3.30105,42.3054],[3.3006700000000007,42.30545999999999],[3.3008300000000004,42.30516]]],[[[3.3096399999999995,42.31252],[3.3100200000000006,42.31268],[3.3095300000000005,42.312799999999996],[3.3096399999999995,42.31252]]],[[[3.3220599999999996,42.31855999999999],[3.3222299999999994,42.31878999999999],[3.32171,42.31868],[3.3220599999999996,42.31855999999999]]],[[[3.3314000000000004,42.31983999999999],[3.3324900000000004,42.32004],[3.33165,42.32021],[3.3314000000000004,42.31983999999999]]],[[[3.3234800000000004,42.32202],[3.3240600000000002,42.322109999999995],[3.32412,42.32229],[3.3234800000000004,42.32202]]],[[[3.32443,42.32129],[3.31863,42.32479],[3.3185,42.32379],[3.3220400000000003,42.32128999999999],[3.32443,42.32129]]],[[[3.2987300000000004,42.327359999999985],[3.29884,42.32762],[3.2985300000000004,42.32755999999999],[3.2987300000000004,42.327359999999985]]],[[[3.3052699999999993,42.327099999999994],[3.30511,42.32818999999999],[3.30399,42.327400000000004],[3.3052699999999993,42.327099999999994]]],[[[3.29866,42.32835],[3.29807,42.32813999999999],[3.29869,42.32831],[3.29866,42.32835]]],[[[3.2860199999999997,42.3322],[3.28701,42.33281000000001],[3.2857899999999995,42.333449999999985],[3.2860199999999997,42.3322]]],[[[3.2603999999999997,42.33651999999999],[3.26083,42.33663999999999],[3.2603399999999993,42.33668],[3.2603999999999997,42.33651999999999]]],[[[3.2775200000000004,42.33731],[3.27765,42.33751999999999],[3.27722,42.337479999999985],[3.2775200000000004,42.33731]]],[[[3.24042,42.33738],[3.2413199999999995,42.337419999999995],[3.2405700000000004,42.337720000000004],[3.24042,42.33738]]],[[[3.2706799999999996,42.33870999999999],[3.27117,42.338559999999994],[3.27125,42.33862],[3.2706799999999996,42.33870999999999]]],[[[3.24007,42.33904999999999],[3.24071,42.33926],[3.24048,42.33938],[3.24007,42.33904999999999]]],[[[3.24335,42.33932],[3.24233,42.34013],[3.24179,42.33979],[3.24335,42.33932]]],[[[3.21824,42.35007],[3.2179,42.35027999999999],[3.21772,42.35016999999999],[3.21824,42.35007]]],[[[3.1782299999999997,42.35312999999999],[3.17865,42.35320999999999],[3.1785,42.35335],[3.1782299999999997,42.35312999999999]]],[[[3.18243,42.35294],[3.1833400000000003,42.35340999999999],[3.18291,42.35369],[3.18243,42.35294]]],[[[3.1756399999999996,42.35472],[3.1762899999999994,42.354659999999996],[3.17624,42.354800000000004],[3.1756399999999996,42.35472]]],[[[3.1653399999999996,42.361819999999994],[3.1648600000000005,42.362419999999986],[3.16471,42.36247999999999],[3.1653399999999996,42.361819999999994]]],[[[3.16722,42.36737],[3.1675099999999996,42.36751],[3.16714,42.36749999999999],[3.16722,42.36737]]],[[[3.1652000000000005,42.37253],[3.1656100000000005,42.37267],[3.1655500000000005,42.37284],[3.1652000000000005,42.37253]]],[[[3.15923,42.38331999999999],[3.15935,42.38367999999999],[3.15916,42.38374],[3.15923,42.38331999999999]]],[[[3.1629699999999996,42.38475999999999],[3.16329,42.384789999999995],[3.16306,42.38508999999999],[3.1629699999999996,42.38475999999999]]],[[[3.1648199999999997,42.40012999999999],[3.16521,42.399969999999996],[3.16525,42.40006],[3.1648199999999997,42.40012999999999]]],[[[3.1651799999999994,42.40160999999999],[3.1664099999999995,42.40136],[3.16585,42.40187],[3.1651799999999994,42.40160999999999]]],[[[3.16472,42.41087],[3.16549,42.41103],[3.1655800000000003,42.411300000000004],[3.16472,42.41087]]],[[[1.9839200000000001,42.44674],[2.01278,42.448359999999994],[2.01439,42.451789999999995],[2.0105400000000007,42.455859999999994],[1.99724,42.460809999999995],[1.9922100000000005,42.46421],[1.9866499999999998,42.47188],[1.9867000000000004,42.47572],[1.9960700000000007,42.48481999999999],[1.9984200000000005,42.48532],[1.9896300000000002,42.49369],[1.9791499999999997,42.494989999999994],[1.9755499999999997,42.48563999999999],[1.9720700000000004,42.48452],[1.9705499999999998,42.48053],[1.9630800000000006,42.47871],[1.9565600000000007,42.457939999999994],[1.9598300000000002,42.453289999999996],[1.9839200000000001,42.44674]]],[[[0.7280899999999996,42.857229999999994],[0.7095600000000004,42.86132],[0.6915900000000001,42.85512000000001],[0.6782399999999998,42.85478999999999],[0.6781200000000005,42.84767999999999],[0.6642100000000009,42.842259999999996],[0.6593,42.83871],[0.6615200000000003,42.82985999999999],[0.6699499999999999,42.82430999999999],[0.6702500000000006,42.82157999999999],[0.6672200000000007,42.819179999999996],[0.6649699999999994,42.81379],[0.6708200000000002,42.80455],[0.6694500000000001,42.80184],[0.6604600000000003,42.79843999999999],[0.6542000000000001,42.792159999999996],[0.6504699999999999,42.785379999999996],[0.64506,42.78312],[0.6537900000000002,42.777319999999996],[0.6672200000000007,42.77511],[0.6623000000000009,42.77000999999999],[0.6585600000000005,42.768149999999984],[0.6556699999999992,42.76854],[0.6504200000000001,42.764950000000006],[0.65006,42.76024000000001],[0.6463600000000004,42.756179999999986],[0.6392800000000001,42.754870000000004],[0.6473100000000012,42.75145],[0.66082,42.75173999999999],[0.6637400000000007,42.749460000000006],[0.6632300000000007,42.74327],[0.6674600000000007,42.73848999999999],[0.6703700000000008,42.73131],[0.6801700000000002,42.72325000000001],[0.6737500000000002,42.7174],[0.6825300000000002,42.70902000000001],[0.6810599999999999,42.70534],[0.676170000000001,42.702890000000004],[0.6739499999999995,42.69892000000001],[0.6767500000000004,42.69082],[0.6720799999999999,42.69003],[0.6621599999999995,42.69143],[0.6601999999999999,42.690850000000005],[0.6600399999999998,42.68879999999999],[0.6737800000000004,42.67723],[0.6754600000000002,42.67168],[0.684110000000001,42.66216],[0.6846600000000002,42.659470000000006],[0.6871500000000003,42.65821999999999],[0.6957599999999999,42.658269999999995],[0.6954600000000009,42.65212],[0.701430000000001,42.640359999999994],[0.6991899999999994,42.62837],[0.7077899999999998,42.621030000000005],[0.7370600000000003,42.61287000000001],[0.7449600000000003,42.61513999999999],[0.7675700000000004,42.61159],[0.7608300000000007,42.59216],[0.7577100000000004,42.56934999999999],[0.7512500000000002,42.56136],[0.7493999999999994,42.55327],[0.7433300000000003,42.548280000000005],[0.7413000000000013,42.54408],[0.7417399999999997,42.54203999999999],[0.7530500000000001,42.53382],[0.7389399999999996,42.537499999999994],[0.7354,42.54087999999999],[0.72908,42.53621],[0.7211300000000007,42.5244],[0.723809999999999,42.52067000000001],[0.7214400000000003,42.515969999999996],[0.7246999999999996,42.51297999999999],[0.7305899999999999,42.51149],[0.7410700000000008,42.50493000000001],[0.7380800000000007,42.50344],[0.735340000000001,42.50411999999999],[0.7289700000000012,42.49766],[0.7134000000000001,42.48723],[0.7007100000000007,42.49543999999998],[0.69913,42.494899999999994],[0.7006800000000002,42.49021],[0.6976900000000006,42.48553],[0.6901300000000004,42.48651000000002],[0.6944999999999998,42.47623],[0.7064299999999994,42.46369],[0.7090299999999999,42.458870000000005],[0.7071300000000006,42.44879999999999],[0.7141900000000005,42.43364],[0.72787,42.42457999999999],[0.7346100000000005,42.41495],[0.7347299999999999,42.40787],[0.7279700000000014,42.40783999999999],[0.7264600000000003,42.404799999999994],[0.7377000000000002,42.39836],[0.7456000000000007,42.38439999999999],[0.7425100000000001,42.378870000000006],[0.7348199999999999,42.376200000000004],[0.7340200000000002,42.37159999999999],[0.7250899999999999,42.37015000000002],[0.72235,42.368669999999995],[0.7220900000000006,42.36656],[0.7274400000000002,42.36326999999999],[0.7464999999999995,42.35645000000001],[0.7603300000000004,42.357079999999996],[0.7709600000000001,42.35032000000001],[0.7635700000000005,42.34700999999998],[0.7600900000000005,42.34846],[0.7535200000000006,42.34601],[0.7410500000000012,42.33482999999999],[0.7435099999999999,42.32791999999999],[0.7595000000000005,42.32542999999999],[0.7656699999999999,42.32282],[0.7601300000000007,42.32046],[0.7546700000000007,42.31391],[0.7561199999999999,42.30935],[0.7443900000000003,42.30124000000001],[0.7436900000000004,42.28565],[0.7378500000000002,42.28236999999999],[0.7393899999999994,42.26959000000001],[0.7343400000000004,42.25073999999999],[0.7322700000000008,42.24744],[0.7278600000000006,42.24615],[0.7256400000000003,42.24334000000001],[0.7247600000000003,42.23664],[0.7143000000000002,42.223859999999995],[0.7134700000000003,42.21235999999999],[0.7079099999999996,42.204049999999995],[0.7091400000000003,42.196839999999995],[0.7067600000000003,42.19114999999999],[0.7021300000000001,42.18733999999999],[0.6978200000000002,42.17254],[0.701100000000001,42.16917999999999],[0.7088800000000004,42.166700000000006],[0.7139599999999999,42.163079999999994],[0.7034900000000004,42.15799],[0.6956400000000001,42.15149],[0.6966900000000008,42.12868],[0.7021800000000002,42.12148],[0.7021900000000008,42.116440000000004],[0.6962400000000002,42.09936],[0.6850300000000005,42.09241999999999],[0.6809699999999995,42.07734000000001],[0.6711999999999999,42.06305],[0.6686600000000005,42.05476000000001],[0.6709900000000004,42.04641],[0.6664699999999995,42.04145999999999],[0.6592299999999995,42.04137],[0.6567300000000005,42.03968999999999],[0.6572800000000001,42.03101],[0.6526800000000005,42.02672999999999],[0.6524700000000007,42.0232],[0.6572600000000005,42.014829999999996],[0.6616200000000001,42.01462],[0.6582400000000003,42.00336],[0.6466200000000006,41.99625999999999],[0.6457000000000015,41.98727999999999],[0.6418600000000005,41.98201],[0.6423399999999997,41.98617],[0.6388599999999997,41.99474],[0.6215299999999998,41.99],[0.6169100000000002,41.98698000000001],[0.6181300000000008,41.98431],[0.6169,41.982220000000005],[0.6112000000000004,41.97798999999999],[0.6104899999999991,41.96789],[0.6044100000000006,41.96317],[0.6055799999999999,41.95999],[0.6006800000000004,41.96175999999999],[0.5930799999999995,41.96871],[0.5870100000000004,41.9665],[0.5860700000000001,41.96200999999999],[0.5781799999999998,41.95757],[0.5614200000000016,41.93793999999998],[0.5626399999999997,41.93268999999999],[0.5723999999999999,41.93133999999999],[0.6016999999999998,41.92276999999999],[0.60759,41.919230000000006],[0.6059200000000005,41.918000000000006],[0.5987700000000001,41.91898],[0.59498,41.91763],[0.5957600000000002,41.91409],[0.6009100000000006,41.90817],[0.5950500000000013,41.88859999999998],[0.5920800000000005,41.884800000000006],[0.6083200000000013,41.878359999999994],[0.6073500000000005,41.871769999999984],[0.6034900000000015,41.86914999999999],[0.5987400000000012,41.86925999999999],[0.5798900000000009,41.86316999999998],[0.5819599999999997,41.85725999999999],[0.5800300000000003,41.850809999999996],[0.5569000000000002,41.853770000000004],[0.5553599999999999,41.85293],[0.5514000000000002,41.843509999999995],[0.5513199999999999,41.84058999999999],[0.5534100000000012,41.84010000000001],[0.5522099999999993,41.83436],[0.5481000000000006,41.82635],[0.54199,41.820119999999996],[0.5251300000000003,41.82224999999998],[0.5194500000000003,41.8206],[0.5155300000000002,41.82209],[0.5019399999999999,41.81437],[0.49888000000000116,41.80711999999999],[0.49486999999999987,41.80434],[0.48852000000000123,41.80503999999999],[0.4745400000000003,41.788619999999995],[0.4698200000000005,41.765429999999995],[0.46447999999999945,41.763310000000004],[0.4481400000000012,41.764709999999994],[0.4379800000000009,41.761320000000005],[0.42819999999999997,41.76160999999998],[0.40685000000000066,41.75866],[0.3990600000000011,41.755839999999985],[0.3948099999999998,41.73769999999998],[0.39524000000000126,41.73181999999999],[0.38520999999999933,41.739619999999995],[0.37270000000000114,41.72345],[0.3688800000000005,41.72414],[0.3682100000000007,41.713649999999994],[0.3415399999999995,41.696059999999996],[0.3283199999999996,41.68152999999999],[0.3258000000000006,41.67337999999999],[0.3263000000000001,41.662560000000006],[0.3329999999999999,41.659780000000005],[0.3496700000000005,41.63648],[0.3555400000000012,41.63457999999999],[0.3582499999999997,41.63197],[0.3468000000000007,41.622389999999996],[0.3497900000000011,41.599549999999994],[0.3922300000000005,41.59521],[0.40220999999999957,41.59262],[0.42881000000000064,41.602199999999996],[0.43616000000000027,41.58489],[0.43133000000000005,41.581],[0.43023000000000006,41.57733],[0.43306000000000033,41.568799999999996],[0.4301000000000009,41.56510999999999],[0.43946000000000024,41.55565],[0.44617000000000023,41.543009999999995],[0.43317000000000033,41.53169],[0.42690000000000033,41.5224],[0.41908999999999996,41.51780999999999],[0.4071599999999995,41.50146999999999],[0.39650999999999953,41.49036],[0.38624000000000086,41.48642000000001],[0.3718999999999998,41.48474000000001],[0.3478200000000001,41.48790000000001],[0.34278999999999943,41.48396],[0.3418200000000006,41.48067000000001],[0.3450899999999997,41.46212],[0.3552700000000003,41.45481999999999],[0.3566900000000001,41.451449999999994],[0.3483400000000007,41.43874999999999],[0.3484100000000008,41.42672999999999],[0.34341999999999967,41.41489000000001],[0.3200199999999995,41.39419],[0.35205000000000014,41.374],[0.35830000000000095,41.37198999999999],[0.3747600000000006,41.35134999999999],[0.3673900000000002,41.34359],[0.35123000000000126,41.332619999999984],[0.3485600000000003,41.32834],[0.3511899999999997,41.32448],[0.36466999999999955,41.32118],[0.36820000000000014,41.31887999999999],[0.37032000000000065,41.31215],[0.3684300000000003,41.30642999999999],[0.3654700000000005,41.30371999999999],[0.3696399999999999,41.29606],[0.3856900000000004,41.27855],[0.37988000000000005,41.27100999999999],[0.37691000000000047,41.26120999999999],[0.3778200000000006,41.25262000000001],[0.37361999999999906,41.24833999999999],[0.3787499999999999,41.2376],[0.38172000000000106,41.23663],[0.36421,41.23855],[0.36451000000000067,41.227920000000005],[0.36114999999999997,41.22522000000001],[0.34936000000000084,41.22681],[0.3407700000000011,41.23099999999999],[0.33105000000000084,41.222349999999985],[0.32637000000000055,41.22255],[0.32241000000000136,41.22485],[0.32121,41.224050000000005],[0.30623999999999985,41.1856],[0.30485000000000056,41.17181999999998],[0.3004299999999994,41.167109999999994],[0.3033,41.16453],[0.3019900000000002,41.160980000000016],[0.2835000000000009,41.155429999999996],[0.27215999999999996,41.14856],[0.25302000000000124,41.149919999999995],[0.2561700000000005,41.14295999999999],[0.2485499999999984,41.13004000000001],[0.23782000000000056,41.12988],[0.21399000000000018,41.13716000000001],[0.21258999999999995,41.13636999999999],[0.21979000000000082,41.13407999999999],[0.21957000000000082,41.13189],[0.2036100000000003,41.128319999999995],[0.20090000000000025,41.12593999999999],[0.20170000000000038,41.12304999999999],[0.20861,41.11648],[0.20046000000000025,41.10217999999999],[0.20064000000000112,41.08483],[0.20716000000000123,41.082879999999996],[0.21544999999999992,41.08447999999999],[0.21959999999999857,41.083290000000005],[0.21944999999999984,41.07948],[0.21626000000000065,41.07755999999999],[0.22070999999999955,41.0713],[0.21739,41.06664000000001],[0.21894000000000055,41.06129],[0.22308000000000022,41.05843],[0.22840000000000052,41.059039999999996],[0.23032000000000022,41.05683],[0.22943000000000005,41.05223],[0.21741000000000116,41.047320000000006],[0.2180900000000007,41.04349999999999],[0.22153000000000045,41.041689999999996],[0.2266600000000005,41.04657999999999],[0.23239000000000024,41.047320000000006],[0.23484000000000038,41.045100000000005],[0.22988000000000142,41.03998],[0.23223000000000094,41.03484000000001],[0.24194000000000063,41.03441000000001],[0.24446000000000004,41.03647000000001],[0.24289000000000072,41.04058],[0.24606000000000072,41.04142],[0.2503700000000007,41.03765],[0.25230000000000097,41.03280999999999],[0.2589299999999995,41.02858],[0.2653299999999998,41.02542],[0.27204000000000056,41.025690000000004],[0.2783999999999998,41.02164],[0.279920000000001,41.01945],[0.2768600000000002,41.0178],[0.2618799999999999,41.01922],[0.2588500000000008,41.01409],[0.26186000000000076,41.01074999999999],[0.26991000000000065,41.009499999999996],[0.2747299999999995,41.00664],[0.27480000000000077,41.00473],[0.26938000000000023,41.00215],[0.2683699999999999,40.998200000000004],[0.2719700000000013,40.993489999999994],[0.2811599999999996,40.98666],[0.28200000000000003,40.97275999999999],[0.2897400000000007,40.974030000000006],[0.29356000000000015,40.970859999999995],[0.29285000000000083,40.968599999999995],[0.28422000000000036,40.96430999999999],[0.28486,40.958879999999986],[0.2813400000000004,40.95231],[0.2726300000000001,40.945699999999995],[0.27382000000000134,40.93552],[0.2667000000000011,40.92828999999999],[0.26026000000000005,40.927949999999996],[0.25435000000000024,40.92027999999999],[0.25168000000000007,40.91203000000001],[0.2484800000000003,40.90937000000001],[0.2510699999999998,40.9068],[0.25128,40.90341999999999],[0.24600000000000044,40.88914],[0.2386100000000001,40.88448999999999],[0.2554499999999994,40.87401999999999],[0.2534400000000005,40.86974],[0.2535600000000003,40.854299999999995],[0.25998000000000054,40.83841],[0.27913999999999967,40.82121000000001],[0.27292999999999956,40.81872],[0.27094000000000057,40.815799999999996],[0.2657900000000002,40.81339],[0.25965000000000016,40.804339999999996],[0.2587600000000004,40.80018999999999],[0.25058999999999987,40.79852],[0.2449900000000001,40.79198],[0.23413000000000106,40.78695999999999],[0.23312000000000033,40.779379999999996],[0.2350500000000006,40.77658],[0.22794000000000017,40.767410000000005],[0.22378999999999874,40.76622],[0.2121199999999998,40.76759],[0.20314999999999994,40.75945],[0.19546999999999995,40.7579],[0.1900099999999991,40.75049],[0.17784000000000066,40.75484000000001],[0.1755699999999998,40.753620000000005],[0.1742499999999994,40.749860000000005],[0.1757400000000009,40.74325999999999],[0.1745399999999995,40.74114999999999],[0.16708000000000028,40.74521000000001],[0.16377000000000053,40.749280000000006],[0.15908000000000047,40.75029],[0.1702500000000007,40.73273999999999],[0.18172999999999978,40.72815000000001],[0.18560999999999991,40.72818999999999],[0.1910399999999982,40.73110000000001],[0.19765000000000035,40.72453000000001],[0.20550000000000104,40.726469999999985],[0.21418000000000004,40.73121],[0.2263800000000002,40.73312999999999],[0.22463000000000038,40.72556],[0.2273699999999998,40.71495000000001],[0.2349800000000009,40.70591],[0.2360899999999999,40.70165],[0.24203999999999967,40.70018000000001],[0.2539700000000013,40.705059999999996],[0.26084000000000057,40.70576],[0.268740000000001,40.70353999999999],[0.27668999999999994,40.695159999999994],[0.29203999999999974,40.68813000000001],[0.2912900000000001,40.68383],[0.28323000000000037,40.67312],[0.2754799999999987,40.670179999999995],[0.26782000000000067,40.65851],[0.26920000000000016,40.64849000000001],[0.2666500000000006,40.64358],[0.2818600000000003,40.62799],[0.29269000000000034,40.62323],[0.2969999999999999,40.62550000000001],[0.29939000000000054,40.624900000000004],[0.31506000000000095,40.61413000000002],[0.32156000000000035,40.613609999999994],[0.3368300000000003,40.60882],[0.3448399999999999,40.60751999999999],[0.3523500000000004,40.60807],[0.3640299999999999,40.60587],[0.3871100000000007,40.60663999999999],[0.39491000000000004,40.60307999999999],[0.4017900000000003,40.60283999999999],[0.4050300000000004,40.59916],[0.4055999999999992,40.59479],[0.4327600000000005,40.57933],[0.44324000000000136,40.5787],[0.43769999999999987,40.57346],[0.43442000000000025,40.567049999999995],[0.43611000000000055,40.54977000000001],[0.4387000000000004,40.5464],[0.4438699999999996,40.54567999999999],[0.4639800000000008,40.53695999999999],[0.4886299999999996,40.52904],[0.5147100000000001,40.52294],[0.5226300000000013,40.54313],[0.53006,40.55095],[0.5317500000000003,40.550779999999996],[0.5342000000000008,40.551909999999985],[0.5303399999999998,40.55149],[0.5382299999999997,40.56763],[0.5472800000000013,40.57301],[0.5513599999999999,40.56969999999999],[0.5564300000000004,40.571479999999994],[0.5513900000000005,40.56993],[0.5498199999999995,40.57175],[0.5521400000000013,40.57286],[0.549510000000001,40.57209999999999],[0.5478899999999997,40.57413],[0.5906299999999998,40.61295],[0.5957099999999996,40.613960000000006],[0.5988600000000002,40.611489999999996],[0.6045200000000002,40.60921999999999],[0.5953700000000007,40.61457],[0.5965700000000002,40.616229999999995],[0.5931999999999996,40.61630000000001],[0.5985300000000009,40.61908999999999],[0.6000899999999997,40.61782],[0.5980499999999994,40.61635],[0.5985800000000002,40.61522],[0.599920000000001,40.61758999999999],[0.6018,40.61606999999999],[0.6001100000000005,40.61458999999999],[0.6024699999999985,40.61624000000001],[0.60246,40.61701],[0.5982300000000003,40.61994],[0.6012300000000004,40.62040999999999],[0.6033199999999996,40.61823],[0.6038800000000005,40.62065999999999],[0.6018599999999998,40.621949999999984],[0.6065299999999996,40.62276999999999],[0.6070799999999995,40.617839999999994],[0.6040199999999999,40.61764999999999],[0.6040899999999996,40.61631],[0.6085200000000002,40.616629999999994],[0.6078699999999999,40.62295],[0.6038199999999999,40.62259],[0.6018299999999998,40.62198],[0.6005400000000003,40.62073],[0.6003900000000003,40.62162000000001],[0.6053000000000004,40.623180000000005],[0.6436900000000007,40.623149999999995],[0.6422100000000002,40.62421],[0.6518300000000001,40.62438999999999],[0.6542099999999998,40.62669000000001],[0.6639800000000002,40.62694],[0.6657000000000003,40.62543999999999],[0.6640999999999996,40.62724],[0.6834400000000004,40.63441999999999],[0.683100000000001,40.63623999999999],[0.6853700000000015,40.634589999999996],[0.692850000000001,40.63636],[0.6925200000000002,40.639309999999995],[0.6949299999999993,40.63673000000001],[0.7036200000000004,40.63839],[0.7080100000000001,40.63634],[0.7140399999999998,40.63897000000001],[0.7331700000000003,40.63871999999999],[0.7328100000000002,40.640049999999995],[0.7335800000000006,40.640699999999995],[0.7357900000000004,40.63784999999999],[0.7374700000000008,40.63750999999999],[0.7382400000000001,40.63783999999999],[0.7365800000000003,40.63907999999999],[0.7384700000000006,40.638290000000005],[0.7382200000000009,40.637379999999986],[0.739300000000001,40.6384],[0.7458100000000013,40.63659],[0.7310600000000008,40.61721],[0.7235299999999999,40.611149999999995],[0.7121500000000003,40.59591],[0.7087900000000004,40.59425],[0.7097900000000014,40.59210999999999],[0.7079300000000007,40.591029999999996],[0.6973599999999998,40.58891],[0.6843199999999999,40.58918],[0.6724299999999999,40.59293],[0.66016,40.591440000000006],[0.6541799999999997,40.585379999999994],[0.6571200000000004,40.57826],[0.6544299999999998,40.578239999999994],[0.6499300000000012,40.58112],[0.6498800000000003,40.57724999999999],[0.6476100000000002,40.57606],[0.6458899999999999,40.57683000000001],[0.6494000000000009,40.57459],[0.64962,40.57287],[0.6488900000000015,40.57464999999999],[0.6471200000000009,40.57478],[0.6484699999999995,40.57378],[0.6484500000000007,40.57262000000001],[0.6479100000000005,40.57377999999999],[0.6469299999999999,40.57343],[0.6454600000000008,40.57534999999999],[0.6456400000000001,40.57374999999999],[0.6339600000000005,40.576429999999995],[0.6307400000000004,40.57818999999999],[0.6295899999999991,40.58169999999999],[0.6180300000000014,40.58575999999999],[0.61655,40.58547],[0.615259999999999,40.57894000000002],[0.6157500000000004,40.57785],[0.6164200000000005,40.578689999999995],[0.6183700000000004,40.57200999999999],[0.6162000000000005,40.57611000000001],[0.6120300000000007,40.57598],[0.6114000000000008,40.57813],[0.6076900000000003,40.5761],[0.6083600000000012,40.577329999999996],[0.6059099999999998,40.57744999999999],[0.6021900000000002,40.57466],[0.5943400000000008,40.57959999999999],[0.5919499999999998,40.579679999999996],[0.5915499999999992,40.57643000000001],[0.5955399999999997,40.56676999999999],[0.6050499999999999,40.55729000000001],[0.6033700000000005,40.55830000000001],[0.6089100000000008,40.55490000000001],[0.6230600000000004,40.55080999999999],[0.6509300000000007,40.554309999999994],[0.6772100000000003,40.56321],[0.6927899999999999,40.57325000000001],[0.7046400000000002,40.58438],[0.7229200000000005,40.6076],[0.75364,40.638209999999994],[0.7636899999999999,40.64382],[0.8389800000000008,40.67555],[0.8531500000000004,40.68357999999999],[0.8619100000000001,40.690870000000004],[0.8696199999999998,40.70504],[0.8735700000000013,40.71688999999999],[0.8743900000000006,40.72031],[0.8717500000000006,40.73056],[0.8715400000000003,40.729429999999994],[0.8663200000000003,40.73025999999999],[0.8627900000000005,40.73646999999999],[0.8598300000000003,40.737610000000004],[0.8583400000000004,40.73700000000001],[0.8614699999999997,40.73665],[0.8603700000000005,40.73582],[0.8530000000000001,40.73533],[0.8452699999999996,40.73121],[0.85546,40.73474000000001],[0.85966,40.73399],[0.8453100000000008,40.73075999999999],[0.8363500000000003,40.731049999999996],[0.8279400000000002,40.73420999999999],[0.7961199999999998,40.76343],[0.7775600000000008,40.78516],[0.76473,40.79261],[0.7534999999999998,40.79413],[0.7448699999999998,40.793670000000006],[0.7297999999999999,40.79114],[0.7257200000000005,40.78925000000001],[0.7252700000000003,40.78784],[0.7290700000000006,40.79026999999999],[0.73581,40.791230000000006],[0.7325599999999997,40.78949],[0.7341700000000001,40.78793],[0.735099999999999,40.78898000000001],[0.7360499999999999,40.78756],[0.7404400000000009,40.78767],[0.7508100000000005,40.78463],[0.7827900000000003,40.773059999999994],[0.7846700000000001,40.76992],[0.7833899999999996,40.7708],[0.7826100000000002,40.768],[0.7809600000000002,40.770089999999996],[0.7815000000000009,40.76833],[0.7781400000000006,40.767300000000006],[0.7771100000000003,40.76876],[0.778190000000001,40.7665],[0.7757400000000005,40.767489999999995],[0.7723799999999998,40.76386000000001],[0.7694200000000009,40.762449999999994],[0.7690800000000003,40.762719999999995],[0.7683300000000003,40.763560000000005],[0.77041,40.762989999999995],[0.7689200000000009,40.76357000000001],[0.7678500000000004,40.763619999999996],[0.7627600000000002,40.76182],[0.7553200000000005,40.76290999999999],[0.7546399999999994,40.76447],[0.7523600000000008,40.763679999999994],[0.7541700000000005,40.76304],[0.7502999999999997,40.763619999999996],[0.7495799999999998,40.764430000000004],[0.74017,40.76622],[0.73995,40.76751999999999],[0.7390899999999996,40.76839],[0.7396200000000008,40.76652999999999],[0.7378200000000005,40.76658],[0.7385900000000009,40.76841],[0.7374199999999996,40.76661],[0.7302800000000006,40.76946],[0.7218200000000005,40.77863000000001],[0.71733,40.78007999999999],[0.7066899999999998,40.78912],[0.6999300000000002,40.79975],[0.7000899999999999,40.80363],[0.7066900000000006,40.809979999999996],[0.7115100000000002,40.81214],[0.7097200000000005,40.808159999999994],[0.7106599999999995,40.80746],[0.7130899999999998,40.81188],[0.7194900000000001,40.81375],[0.7226499999999995,40.81639],[0.7321299999999998,40.81855],[0.7322499999999996,40.821089999999984],[0.7351300000000004,40.823890000000006],[0.74134,40.82336],[0.7429000000000004,40.83366999999999],[0.7451700000000012,40.83890999999999],[0.7492900000000009,40.840939999999996],[0.74906,40.84354],[0.7521700000000009,40.84636],[0.7563200000000008,40.84745000000001],[0.7625899999999999,40.84648000000001],[0.7637500000000002,40.850739999999995],[0.7701500000000006,40.85793000000001],[0.77793,40.85940000000001],[0.7918500000000014,40.866429999999994],[0.79576,40.87142999999999],[0.7949900000000009,40.87426999999999],[0.7966900000000006,40.874089999999995],[0.7965000000000003,40.87611],[0.8019299999999994,40.87914],[0.8004500000000009,40.87916999999999],[0.8031400000000002,40.88154],[0.8013600000000006,40.881289999999986],[0.8020300000000012,40.88256],[0.8049800000000005,40.88302999999999],[0.80363,40.88078],[0.8028499999999997,40.87739999999999],[0.8073600000000005,40.88706],[0.8143599999999994,40.89199],[0.8168800000000004,40.89196],[0.8186900000000005,40.895839999999986],[0.8267900000000005,40.903299999999994],[0.8269799999999999,40.90832999999999],[0.8338400000000007,40.911730000000006],[0.8325200000000007,40.91293],[0.8354200000000002,40.91486],[0.8336100000000001,40.91599999999998],[0.8363300000000011,40.91505999999999],[0.8356700000000004,40.91345999999999],[0.8366899999999997,40.91476],[0.8374300000000003,40.91908999999999],[0.8501399999999998,40.927],[0.8515,40.929629999999996],[0.8507800000000005,40.92622],[0.8519900000000006,40.93137],[0.8576500000000007,40.93576999999999],[0.8619900000000007,40.94685999999999],[0.87531,40.95196],[0.8798000000000001,40.95625],[0.8807099999999999,40.95982],[0.8859600000000009,40.96213000000001],[0.8982399999999997,40.97526],[0.9044099999999998,40.97760999999999],[0.9154100000000006,40.9875],[0.92143,40.98893],[0.9237799999999999,40.987469999999995],[0.922359999999999,40.98636000000001],[0.9243899999999998,40.98717],[0.9249000000000003,40.98868999999999],[0.92794,40.98805999999999],[0.9272700000000006,40.98926999999998],[0.92933,40.99008],[0.9304100000000004,40.988499999999995],[0.9272100000000006,40.98711999999999],[0.9308800000000006,40.98835999999999],[0.9301700000000008,40.98988],[0.942340000000001,41.00777999999999],[0.9636100000000003,41.02627999999999],[0.986050000000001,41.04059999999999],[0.9917399999999996,41.04279],[1.0038000000000005,41.04335],[1.0154900000000007,41.05096],[1.02256,41.0518],[1.0367400000000004,41.0587],[1.0390199999999998,41.05789],[1.0408300000000004,41.05876],[1.040000000000001,41.06009999999999],[1.0462600000000004,41.06306],[1.0520299999999996,41.06432],[1.06207,41.062540000000006],[1.058820000000001,41.06448],[1.0646900000000001,41.06532],[1.0650899999999999,41.06381],[1.0605800000000005,41.05998999999999],[1.0683300000000002,41.065749999999994],[1.08446,41.06383],[1.1042099999999997,41.07049000000001],[1.1262000000000005,41.0749],[1.1316499999999996,41.07436],[1.1303300000000005,41.07299999999999],[1.1440100000000006,41.07186999999999],[1.1453300000000008,41.06936],[1.1491100000000003,41.0675],[1.1475800000000005,41.06535000000001],[1.1526,41.06579],[1.1581899999999996,41.06379],[1.1620600000000008,41.058589999999995],[1.1607700000000005,41.055800000000005],[1.1673299999999998,41.05662000000001],[1.1704700000000006,41.05467],[1.1811100000000008,41.06401000000001],[1.181980000000001,41.06624],[1.1795300000000004,41.06748],[1.179650000000001,41.07050999999999],[1.1865999999999997,41.081059999999994],[1.1922799999999998,41.08525999999999],[1.1959400000000002,41.08291999999999],[1.1906800000000006,41.08659],[1.1919600000000008,41.08800999999999],[1.1968100000000002,41.09094],[1.1995900000000002,41.08784000000001],[1.205770000000001,41.08342999999999],[1.2059600000000001,41.08361999999999],[1.19729,41.09087999999999],[1.1988099999999997,41.09398999999999],[1.208149999999999,41.08755000000001],[1.20973,41.08704],[1.2141900000000008,41.08711999999999],[1.2097599999999997,41.08736999999999],[1.2119300000000008,41.08868999999999],[1.2047600000000007,41.09535999999999],[1.2073199999999995,41.09738000000001],[1.2160700000000007,41.09017999999999],[1.2191899999999998,41.09238],[1.21293,41.099430000000005],[1.2148700000000003,41.10067],[1.2183799999999998,41.10229],[1.2240200000000006,41.10179],[1.2255400000000007,41.09817999999999],[1.2228800000000006,41.096239999999995],[1.2265599999999999,41.09864],[1.2253000000000003,41.09900999999999],[1.2276200000000006,41.10030999999999],[1.2258900000000004,41.10526],[1.2285000000000006,41.10535],[1.2301300000000004,41.10095],[1.23753,41.10379],[1.2371800000000006,41.10645999999999],[1.2443700000000006,41.105979999999995],[1.2450500000000007,41.10413],[1.2336800000000003,41.09979],[1.2303800000000003,41.095389999999995],[1.2290600000000003,41.09595999999999],[1.2235299999999993,41.09057000000001],[1.2257700000000002,41.08931],[1.22521,41.08715999999999],[1.2134800000000001,41.07866],[1.2264600000000005,41.08751],[1.2321900000000003,41.09488999999999],[1.2463400000000004,41.10045999999999],[1.2483599999999995,41.105309999999996],[1.25009,41.10732],[1.2514100000000001,41.10660000000001],[1.2524000000000002,41.109379999999994],[1.2537400000000005,41.10860999999999],[1.2511500000000002,41.10560999999999],[1.2523600000000004,41.10639],[1.2558300000000004,41.11191000000001],[1.2641100000000005,41.11423],[1.2665299999999997,41.112599999999986],[1.2704300000000006,41.11315],[1.2778600000000002,41.11993],[1.28211,41.120110000000004],[1.2841700000000005,41.12242],[1.2887900000000008,41.12308999999998],[1.2953500000000004,41.126999999999995],[1.30682,41.12904999999999],[1.3210699999999997,41.129459999999995],[1.32497,41.12771000000001],[1.33614,41.12856],[1.3440200000000002,41.124779999999994],[1.3443399999999996,41.12681],[1.3473500000000003,41.12796999999999],[1.3525400000000003,41.12714],[1.37805,41.13385999999999],[1.38412,41.1344],[1.38661,41.13251],[1.3940800000000004,41.13183],[1.4014900000000006,41.13357],[1.4000900000000003,41.13385],[1.4027099999999997,41.13691000000001],[1.4044899999999998,41.13604999999999],[1.4014499999999999,41.13261],[1.4049900000000004,41.136100000000006],[1.4043000000000005,41.13797999999999],[1.4090900000000002,41.14164000000001],[1.4601700000000006,41.1636],[1.4791500000000006,41.16844999999999],[1.4839,41.167049999999996],[1.4861500000000003,41.17013000000001],[1.4881700000000004,41.16852],[1.4828300000000003,41.16606999999999],[1.484940000000001,41.16618999999999],[1.48874,41.16855999999999],[1.4885400000000002,41.16987],[1.493380000000001,41.172399999999996],[1.5140600000000004,41.17781],[1.52284,41.178929999999994],[1.5270800000000002,41.17801999999999],[1.5255800000000002,41.17634],[1.5309200000000003,41.18001],[1.5407699999999998,41.18254],[1.5914100000000004,41.188570000000006],[1.6050600000000006,41.18814999999999],[1.6057000000000003,41.18491999999999],[1.6067800000000003,41.18452],[1.60586,41.18892000000002],[1.6073000000000004,41.18905999999999],[1.6075400000000002,41.18365],[1.6083299999999998,41.18847999999999],[1.61439,41.19041999999999],[1.6379200000000003,41.19373],[1.6387000000000005,41.19267000000001],[1.6403900000000007,41.19283999999999],[1.6405100000000008,41.194179999999996],[1.6434900000000003,41.19335],[1.6454200000000003,41.19484],[1.6474700000000004,41.19363],[1.6494900000000006,41.19612999999998],[1.6545900000000004,41.19667],[1.6526000000000003,41.193819999999995],[1.6471700000000005,41.192789999999995],[1.6554300000000008,41.19396999999999],[1.6577999999999997,41.1958],[1.6763200000000003,41.198840000000004],[1.6982999999999995,41.20809],[1.7074700000000005,41.20747999999999],[1.7149500000000009,41.21106999999999],[1.71836,41.20985],[1.7232800000000001,41.211739999999985],[1.72789,41.21104999999999],[1.7292100000000001,41.20798],[1.7316500000000001,41.20996],[1.7312399999999994,41.2111],[1.7295100000000003,41.21023000000001],[1.7307599999999999,41.212180000000004],[1.7287600000000003,41.211760000000005],[1.72821,41.21315999999999],[1.7307499999999998,41.21438000000001],[1.72854,41.21392],[1.7282700000000004,41.21491999999999],[1.7332600000000002,41.21539],[1.7342500000000003,41.21345999999998],[1.7337499999999995,41.2155],[1.7357800000000008,41.21591999999999],[1.73669,41.21341],[1.7340499999999999,41.21279],[1.7363900000000003,41.21301],[1.7371800000000004,41.21131999999999],[1.7340900000000001,41.21057],[1.7300399999999998,41.205929999999995],[1.7347100000000006,41.209939999999996],[1.7381200000000003,41.21076],[1.7373300000000003,41.21439],[1.74268,41.21825],[1.7499700000000002,41.21779999999999],[1.7540000000000004,41.219759999999994],[1.7618600000000004,41.21868],[1.7769400000000004,41.223639999999996],[1.7885200000000008,41.223739999999985],[1.7893799999999995,41.226200000000006],[1.7962800000000005,41.23033],[1.8072500000000002,41.23418000000001],[1.81015,41.233489999999996],[1.8150999999999995,41.23599000000001],[1.8206600000000002,41.23575999999999],[1.8217,41.23314],[1.825080000000001,41.233599999999996],[1.8217399999999997,41.23338],[1.8214900000000007,41.23458999999999],[1.82598,41.234629999999996],[1.8267,41.2333],[1.8241900000000002,41.23203],[1.8270100000000002,41.23304999999999],[1.82897,41.23668],[1.8539200000000002,41.234629999999996],[1.8604799999999995,41.23644000000001],[1.86147,41.23913],[1.8640600000000003,41.238279999999996],[1.8661300000000003,41.23944000000001],[1.8673700000000004,41.23794],[1.8659399999999995,41.236520000000006],[1.8676699999999997,41.23796000000001],[1.8662500000000004,41.23976],[1.86944,41.24295],[1.8850300000000006,41.24775],[1.9001000000000006,41.24951],[1.8983400000000006,41.25027999999998],[1.901,41.25197],[1.900700000000001,41.249259999999985],[1.89884,41.24868],[1.90024,41.24859],[1.9007899999999998,41.24896],[1.9030699999999996,41.25358],[1.91819,41.25806999999999],[1.92014,41.25733],[1.92132,41.25949000000001],[1.92245,41.25835],[1.9211699999999998,41.25774],[1.9282199999999996,41.26084],[1.92886,41.259539999999994],[1.9210699999999996,41.25562000000001],[1.9287099999999997,41.25905000000001],[1.9304400000000004,41.26086],[1.9377500000000005,41.26292999999999],[1.99422,41.264089999999996],[2.02388,41.26613999999999],[2.07474,41.27654],[2.1111200000000006,41.28904],[2.12959,41.2974],[2.136080000000001,41.29762999999999],[2.1378799999999996,41.2931],[2.13706,41.300599999999996],[2.14424,41.29568],[2.1517,41.29547],[2.1551200000000006,41.29753],[2.16668,41.30891999999999],[2.16758,41.31123],[2.1654200000000006,41.31783999999999],[2.1668200000000004,41.30976999999999],[2.1545299999999994,41.29736],[2.1525900000000004,41.29623],[2.14291,41.29911],[2.14515,41.30184],[2.1423599999999996,41.30425000000001],[2.15495,41.315229999999985],[2.1529100000000003,41.31633000000001],[2.1564300000000003,41.31989999999998],[2.15656,41.32028],[2.1564999999999994,41.32046],[2.15623,41.3207],[2.15407,41.32192],[2.15372,41.32201],[2.1523200000000005,41.321839999999995],[2.15381,41.32731999999999],[2.1591699999999996,41.32721000000001],[2.16488,41.338179999999994],[2.1652000000000005,41.34138999999999],[2.1592500000000006,41.34324999999999],[2.1562500000000004,41.341819999999984],[2.15407,41.33902],[2.14892,41.33],[2.14593,41.33099],[2.14728,41.3337],[2.14428,41.33475000000001],[2.14562,41.336549999999995],[2.14956,41.33667],[2.15092,41.34647999999999],[2.15274,41.34634],[2.15331,41.342699999999994],[2.1632399999999996,41.34837],[2.16691,41.34714],[2.17305,41.3565],[2.1699000000000006,41.35865],[2.17094,41.36025],[2.17547,41.35864],[2.17674,41.36055],[2.1734699999999996,41.36204000000001],[2.1759800000000005,41.36533000000001],[2.17932,41.36356000000001],[2.18074,41.365779999999994],[2.1765200000000005,41.367129999999996],[2.17709,41.37215000000001],[2.1821100000000007,41.37040999999999],[2.18299,41.37160999999999],[2.17798,41.37414],[2.18231,41.379549999999995],[2.1832600000000006,41.37755000000001],[2.18109,41.375029999999995],[2.18305,41.37433999999999],[2.1849600000000002,41.37673],[2.1846600000000005,41.38067],[2.1872500000000006,41.377599999999994],[2.1842400000000004,41.372949999999996],[2.18564,41.372629999999994],[2.1866700000000003,41.37481],[2.18754,41.37316],[2.18478,41.37184],[2.1852400000000003,41.36809],[2.1872100000000003,41.37001],[2.1849399999999997,41.36525999999999],[2.18661,41.36401999999998],[2.1879599999999995,41.367250000000006],[2.1892400000000003,41.366569999999996],[2.18459,41.3579],[2.1853600000000006,41.35772999999999],[2.19186,41.36986],[2.19006,41.36959],[2.18938,41.37127],[2.19279,41.37899000000001],[2.19457,41.38108],[2.1970100000000006,41.38105],[2.1952500000000006,41.3818],[2.19611,41.38373],[2.1999800000000005,41.385189999999994],[2.19831,41.386900000000004],[2.2004499999999996,41.38833],[2.20196,41.38718999999999],[2.20059,41.385569999999994],[2.20274,41.38661],[2.1997300000000006,41.38331999999999],[2.20362,41.38741],[2.2013100000000003,41.38879],[2.2021099999999993,41.39009],[2.2052200000000006,41.3908],[2.20868,41.3954],[2.2109899999999993,41.394969999999994],[2.2125100000000004,41.39878999999999],[2.21553,41.39859],[2.2141000000000006,41.40024],[2.21808,41.404389999999985],[2.2253,41.40653],[2.2294600000000004,41.41187],[2.2267700000000006,41.41385],[2.22503,41.41322999999999],[2.2274900000000004,41.41546],[2.2296199999999997,41.41340000000002],[2.2329300000000005,41.414669999999994],[2.22968,41.40921],[2.2331200000000004,41.414550000000006],[2.23191,41.41588],[2.23438,41.42207999999999],[2.24203,41.43215],[2.2423900000000003,41.43326999999999],[2.23982,41.433779999999985],[2.24252,41.433620000000005],[2.24036,41.434659999999994],[2.24084,41.436009999999996],[2.2443499999999994,41.43643000000001],[2.24282,41.431189999999994],[2.24501,41.43844000000001],[2.24966,41.44476],[2.2664600000000004,41.459089999999996],[2.30444,41.47494999999999],[2.30951,41.47412],[2.31237,41.475049999999996],[2.30941,41.47443],[2.30852,41.47601000000001],[2.3133,41.475889999999985],[2.3132,41.477099999999986],[2.3166800000000003,41.47769],[2.3109800000000003,41.47358],[2.3123,41.47359],[2.33,41.48121],[2.36165,41.48923],[2.36578,41.48812999999999],[2.36971,41.49037],[2.37043,41.488929999999996],[2.36477,41.48780000000001],[2.36586,41.487239999999986],[2.37046,41.48866],[2.3759000000000006,41.49372999999999],[2.39933,41.50413999999999],[2.4395500000000006,41.52835000000001],[2.4428300000000003,41.529169999999986],[2.4447000000000005,41.52784],[2.44308,41.52925],[2.44676,41.53201999999999],[2.44877,41.52984],[2.4444899999999996,41.52617000000001],[2.44929,41.5298],[2.4481300000000004,41.532199999999996],[2.4496299999999995,41.533939999999994],[2.46148,41.54259999999999],[2.47054,41.54668],[2.4940499999999997,41.55263],[2.5005900000000003,41.55609],[2.50362,41.555629999999994],[2.5062299999999995,41.55700999999999],[2.50384,41.55597999999999],[2.50254,41.55711999999999],[2.5054,41.55878],[2.5059,41.55810999999999],[2.5080899999999997,41.55808],[2.5065,41.55931999999999],[2.50856,41.55966],[2.50902,41.55835],[2.5057999999999994,41.55541000000001],[2.51461,41.56224],[2.5493199999999994,41.57694],[2.55479,41.57758],[2.55611,41.576319999999996],[2.5589200000000005,41.57611],[2.5564500000000003,41.577479999999994],[2.55969,41.57785],[2.5554400000000004,41.57936],[2.56285,41.57932],[2.56011,41.57537],[2.55653,41.57446],[2.56058,41.57498],[2.56224,41.577549999999995],[2.5718700000000005,41.58229],[2.6317200000000005,41.6037],[2.6398400000000004,41.60492],[2.7110400000000006,41.62812],[2.71919,41.62951999999999],[2.7312099999999995,41.63667000000001],[2.7461900000000004,41.642340000000004],[2.77396,41.648469999999996],[2.77831,41.65095],[2.78586,41.66573999999999],[2.79186,41.672630000000005],[2.7948399999999998,41.67416],[2.7974700000000006,41.673460000000006],[2.79553,41.67482],[2.7992399999999997,41.67564999999999],[2.80092,41.67397],[2.7988499999999994,41.672839999999994],[2.80047,41.672449999999984],[2.7965700000000004,41.67246],[2.7993299999999994,41.67153],[2.801,41.67244999999999],[2.8033800000000006,41.67607999999999],[2.8057100000000004,41.676079999999985],[2.8075700000000006,41.67896],[2.8156800000000004,41.68274999999999],[2.81941,41.68894],[2.82779,41.6908],[2.8339099999999995,41.69421],[2.8422900000000006,41.693580000000004],[2.8451700000000004,41.69486],[2.8460999999999994,41.69743],[2.85109,41.69911999999999],[2.8579299999999996,41.69988000000001],[2.8659699999999995,41.6987],[2.8736600000000005,41.70179000000001],[2.87999,41.701969999999996],[2.8800800000000004,41.70322999999999],[2.88114,41.704040000000006],[2.8806200000000004,41.70297999999999],[2.88529,41.70369000000001],[2.8873800000000003,41.70152999999999],[2.89009,41.70348],[2.90026,41.70564000000001],[2.89913,41.707469999999994],[2.9034400000000002,41.71032000000001],[2.91273,41.70816],[2.9195200000000003,41.712790000000005],[2.9244400000000006,41.71206],[2.92652,41.71375],[2.9350699999999996,41.71524999999999],[2.9337000000000004,41.71814],[2.93481,41.72032999999999],[2.93893,41.72189],[2.94111,41.72511999999999],[2.94785,41.72783],[2.94845,41.72983000000001],[2.94666,41.73026000000001],[2.95107,41.731139999999996],[2.9508300000000003,41.7329],[2.9535200000000006,41.73138],[2.9536699999999994,41.73689999999999],[2.95842,41.735699999999994],[2.95769,41.736639999999994],[2.9602600000000003,41.73762],[2.9576999999999996,41.73805000000001],[2.9579,41.740280000000006],[2.96486,41.74496999999998],[2.96505,41.74603],[2.97115,41.75308],[2.9752100000000006,41.75397999999999],[2.97714,41.75753],[2.9807599999999996,41.75813000000001],[2.98105,41.75963],[2.9826,41.75889999999999],[2.9844,41.76075],[2.99782,41.76299999999999],[2.99821,41.76518999999999],[3.0027900000000005,41.765159999999995],[3.0016299999999996,41.76683999999999],[3.0104500000000005,41.771919999999994],[3.0261300000000007,41.77396],[3.03023,41.77087],[3.03223,41.77252],[3.0292700000000004,41.77770999999999],[3.03031,41.77980999999999],[3.0375599999999996,41.7801],[3.0379699999999996,41.77832999999999],[3.0342700000000002,41.77700999999999],[3.04371,41.77856],[3.04461,41.78163000000001],[3.0482299999999998,41.78198999999999],[3.04652,41.78304000000001],[3.0455099999999997,41.78833],[3.05284,41.79081],[3.05569,41.78710999999999],[3.0615,41.79514000000001],[3.0611499999999996,41.798179999999995],[3.06538,41.800920000000005],[3.06313,41.800550000000015],[3.06085,41.80365],[3.0585999999999998,41.80344999999999],[3.05522,41.80501000000001],[3.0619500000000004,41.8043],[3.0632599999999996,41.801359999999995],[3.06662,41.8007],[3.0648799999999996,41.80330000000001],[3.07137,41.81903],[3.07436,41.82201],[3.08354,41.8263],[3.0877599999999994,41.831610000000005],[3.09301,41.83227],[3.0935800000000007,41.83759],[3.1021900000000002,41.84494],[3.11388,41.84853999999999],[3.12218,41.84816],[3.1271800000000005,41.84609],[3.12767,41.84543],[3.12382,41.84487],[3.12387,41.84459999999999],[3.1274,41.84447000000001],[3.12821,41.84295999999999],[3.1200500000000004,41.84161999999999],[3.12849,41.84236999999999],[3.12937,41.84125999999999],[3.13583,41.84519],[3.1333600000000006,41.84466],[3.1323899999999996,41.84628000000001],[3.1368699999999996,41.84763999999999],[3.13579,41.84407],[3.1378,41.848879999999994],[3.1448799999999997,41.84967000000001],[3.14532,41.85354],[3.1423500000000004,41.855720000000005],[3.1438500000000005,41.857829999999986],[3.1501,41.858609999999985],[3.1505900000000002,41.861399999999996],[3.15499,41.86249],[3.15815,41.86201],[3.15903,41.859649999999995],[3.15903,41.86095],[3.1650900000000006,41.86201],[3.1657899999999994,41.86378999999999],[3.17226,41.86386999999999],[3.1778899999999997,41.86779],[3.17696,41.87011999999999],[3.17945,41.874140000000004],[3.17842,41.874959999999994],[3.18125,41.87651],[3.1783000000000006,41.879189999999994],[3.18319,41.88174],[3.1824699999999995,41.88709],[3.1903899999999994,41.88812000000001],[3.1936599999999995,41.89054999999999],[3.19271,41.89194],[3.1943800000000007,41.893600000000006],[3.20272,41.89155999999999],[3.2053499999999997,41.90028],[3.20796,41.90035999999999],[3.20936,41.90212],[3.21005,41.90491],[3.20682,41.90802999999999],[3.2120100000000003,41.90916],[3.2080800000000003,41.91286],[3.20941,41.91465],[3.2073,41.91709],[3.21633,41.91828000000001],[3.2158,41.92149],[3.21867,41.922630000000005],[3.2164299999999995,41.924189999999996],[3.2190500000000006,41.92645],[3.21725,41.928829999999984],[3.2149799999999997,41.92909],[3.2199600000000004,41.93236],[3.21795,41.933319999999995],[3.22053,41.934839999999994],[3.2185799999999998,41.93567],[3.21665,41.93397999999999],[3.21419,41.93632],[3.21843,41.94051],[3.2178199999999997,41.94242],[3.2334699999999996,41.95036000000001],[3.2293799999999995,41.95499999999999],[3.23366,41.95858],[3.23356,41.961999999999996],[3.23181,41.95947],[3.23015,41.96013000000001],[3.2304899999999996,41.96257],[3.22719,41.96391],[3.2318,41.96591],[3.2310499999999998,41.969170000000005],[3.22124,41.97425],[3.21365,41.9741],[3.21213,41.972899999999996],[3.21029,41.973789999999994],[3.2110400000000006,41.97716],[3.20246,41.989709999999995],[3.19611,42.00972000000001],[3.1942899999999996,42.0305],[3.1970900000000007,42.04495000000001],[3.20039,42.05098999999999],[3.2020200000000005,42.05196999999999],[3.20385,42.050799999999995],[3.20534,42.05151999999999],[3.20389,42.05104],[3.2007,42.053329999999995],[3.20576,42.054309999999994],[3.20424,42.05230999999999],[3.20754,42.05356],[3.2083600000000003,42.052339999999994],[3.2057700000000002,42.05073999999999],[3.2065900000000003,42.05059],[3.2121199999999996,42.05415],[3.21102,42.055170000000004],[3.2136600000000004,42.05952],[3.2123700000000004,42.05962],[3.2144999999999997,42.06113],[3.21004,42.061440000000005],[3.20901,42.06571],[3.2108499999999998,42.06757000000001],[3.2119699999999995,42.066860000000005],[3.21207,42.06868],[3.2025300000000003,42.073510000000006],[3.20426,42.07456],[3.19858,42.07772],[3.19845,42.080000000000005],[3.2020100000000005,42.08218999999999],[3.19936,42.081509999999994],[3.19843,42.08354],[3.19518,42.083369999999995],[3.19528,42.08617999999999],[3.19024,42.09438999999999],[3.1878700000000006,42.09542999999999],[3.1884099999999997,42.09739],[3.1843699999999995,42.09924],[3.185,42.101519999999994],[3.18171,42.10527],[3.1793099999999996,42.10314],[3.1743000000000006,42.10258999999999],[3.16937,42.10553999999999],[3.16975,42.10817999999999],[3.1746000000000003,42.1073],[3.17613,42.11144],[3.1726,42.11174],[3.17149,42.11430000000001],[3.16917,42.114879999999985],[3.16484,42.11305],[3.16335,42.11535],[3.1583,42.115829999999995],[3.1570600000000004,42.11744999999999],[3.14938,42.12118999999999],[3.14705,42.12093999999999],[3.14542,42.11981],[3.1504999999999996,42.12056],[3.1492200000000006,42.11953999999999],[3.14501,42.11890999999999],[3.14851,42.11853],[3.14904,42.11702],[3.14735,42.116479999999996],[3.14619,42.11783],[3.14432,42.11751000000001],[3.14573,42.11586],[3.14158,42.11494999999999],[3.13799,42.11571],[3.13654,42.12614],[3.13385,42.12794],[3.13314,42.12659],[3.12455,42.12756999999999],[3.12468,42.13069999999999],[3.12239,42.1314],[3.1219599999999996,42.135760000000005],[3.11788,42.14196],[3.11256,42.16584999999999],[3.1109100000000005,42.20167999999998],[3.11829,42.22515],[3.1254999999999997,42.23617],[3.1349999999999993,42.245629999999984],[3.13339,42.24733],[3.13638,42.24568000000001],[3.1353500000000003,42.24804000000001],[3.14552,42.25621999999999],[3.15089,42.2592],[3.15078,42.25724],[3.15102,42.25972999999999],[3.15629,42.26236000000001],[3.16522,42.26462999999999],[3.17255,42.26394],[3.1746300000000005,42.261490000000016],[3.1714900000000004,42.259890000000006],[3.1758900000000003,42.26102999999999],[3.1791,42.258779999999994],[3.1757699999999995,42.25693],[3.17524,42.25511999999999],[3.17562,42.25406999999999],[3.17622,42.25708],[3.18064,42.257859999999994],[3.1809999999999996,42.25648],[3.17665,42.25540999999999],[3.1782,42.25531],[3.1789100000000006,42.2525],[3.17843,42.255379999999995],[3.1810799999999997,42.25578999999999],[3.18108,42.25209999999999],[3.1778499999999994,42.25106],[3.18164,42.25095999999999],[3.18068,42.247969999999995],[3.1822500000000002,42.24551999999999],[3.1965699999999995,42.24709000000001],[3.20027,42.24224999999999],[3.20862,42.23995],[3.2073399999999994,42.23736000000001],[3.21248,42.23682],[3.2179499999999996,42.232389999999995],[3.22095,42.234449999999995],[3.22053,42.23657999999999],[3.22644,42.237649999999995],[3.22482,42.23976999999999],[3.2289400000000006,42.240399999999994],[3.2258400000000003,42.24353],[3.23056,42.2449],[3.22685,42.248979999999996],[3.22947,42.25158],[3.2376399999999994,42.24749],[3.2390499999999998,42.250980000000006],[3.24386,42.24967],[3.24923,42.24081],[3.2626000000000004,42.23716999999999],[3.26655,42.242869999999996],[3.26313,42.24416999999999],[3.2540100000000005,42.24428999999999],[3.2526100000000002,42.24642000000001],[3.2563399999999993,42.248889999999996],[3.2536400000000003,42.25256],[3.25528,42.25331],[3.26138,42.25095999999999],[3.2666500000000003,42.25367],[3.2768399999999995,42.25266],[3.27931,42.25302],[3.2798899999999995,42.254619999999996],[3.2815900000000005,42.25386000000001],[3.2810300000000003,42.25762],[3.28285,42.25897],[3.28294,42.260099999999994],[3.28777,42.26587000000001],[3.28631,42.26760000000001],[3.28726,42.270990000000005],[3.2831,42.27013999999999],[3.28297,42.27331000000001],[3.27674,42.28000999999999],[3.27724,42.28126999999999],[3.2807600000000003,42.2804],[3.27555,42.28393],[3.2766000000000006,42.28745],[3.28092,42.28846999999999],[3.2834099999999995,42.285740000000004],[3.28776,42.28493000000001],[3.2876,42.28251],[3.2969,42.28348],[3.296,42.28580999999999],[3.2992499999999993,42.28455],[3.295819999999999,42.28992],[3.29044,42.29225],[3.2908099999999996,42.289489999999994],[3.28619,42.29325],[3.29165,42.29486000000001],[3.2912399999999997,42.29704999999999],[3.2885299999999997,42.29737],[3.28928,42.298989999999996],[3.292,42.29904],[3.2929900000000005,42.30171],[3.28804,42.30192999999999],[3.28654,42.30355999999999],[3.28981,42.30425000000001],[3.29087,42.30707999999999],[3.29466,42.3071],[3.2958000000000003,42.30465],[3.3002899999999995,42.30447999999999],[3.2981799999999994,42.30677],[3.30253,42.30798999999999],[3.30274,42.31123999999999],[3.3037199999999993,42.310309999999994],[3.3036800000000004,42.31163],[3.3053800000000004,42.31123],[3.3062600000000004,42.31332],[3.3060600000000004,42.31084],[3.30758,42.31066],[3.3075699999999997,42.31405999999999],[3.312739999999999,42.313019999999995],[3.3114500000000002,42.31764],[3.31574,42.31448000000001],[3.3181600000000007,42.31454],[3.3151499999999996,42.31763999999999],[3.31992,42.31670999999999],[3.322249999999999,42.31942],[3.3117499999999995,42.324659999999994],[3.3109900000000003,42.32019],[3.3071600000000005,42.32237],[3.3079900000000007,42.32663],[3.3045899999999997,42.326809999999995],[3.305369999999999,42.32539],[3.3011400000000006,42.326249999999995],[3.2972999999999995,42.32773],[3.2948300000000006,42.32943999999999],[3.29227,42.32952999999999],[3.29305,42.32674999999999],[3.28907,42.32938],[3.2858299999999994,42.325700000000005],[3.2857500000000006,42.33142000000001],[3.2824399999999994,42.33288],[3.27762,42.33257999999999],[3.28005,42.33359000000001],[3.2803099999999996,42.33621],[3.2705300000000004,42.33836999999999],[3.26765,42.340419999999995],[3.26143,42.34013],[3.26326,42.336710000000004],[3.2611600000000003,42.33767000000001],[3.26259,42.33445999999999],[3.2604000000000006,42.33507],[3.26014,42.33333],[3.256,42.33534],[3.25348,42.3333],[3.2505599999999997,42.33581000000001],[3.25132,42.330169999999995],[3.24972,42.32971],[3.2464700000000004,42.33643000000001],[3.2408900000000003,42.335710000000006],[3.2368100000000006,42.34345999999999],[3.23823,42.34887],[3.22868,42.351519999999994],[3.2226200000000005,42.34824],[3.2180800000000005,42.35001],[3.21545,42.34952],[3.21509,42.34695],[3.21139,42.34709999999999],[3.2102100000000005,42.34391],[3.2054,42.34728],[3.2034299999999996,42.347060000000006],[3.20031,42.34072999999999],[3.20252,42.34214999999998],[3.2034000000000002,42.33716],[3.1965,42.33496000000001],[3.1855100000000003,42.34365],[3.1878700000000006,42.35180999999999],[3.1842699999999997,42.35038],[3.1807300000000005,42.3533],[3.17805,42.352889999999995],[3.17774,42.35441999999998],[3.17543,42.35441],[3.1724399999999995,42.35573999999999],[3.17029,42.35812000000001],[3.1630400000000005,42.360290000000006],[3.16446,42.362120000000004],[3.1633099999999996,42.36485],[3.1671499999999995,42.368829999999996],[3.1646,42.37155],[3.16508,42.37428],[3.1626500000000006,42.37484],[3.16443,42.37409999999999],[3.16284,42.37303],[3.16385,42.37178999999999],[3.16251,42.37122999999998],[3.16137,42.37264],[3.16296,42.37384],[3.16113,42.37302999999999],[3.1612500000000003,42.37254],[3.1621200000000003,42.37145],[3.1596399999999996,42.37158999999999],[3.15858,42.376450000000006],[3.15502,42.37874999999999],[3.15963,42.385090000000005],[3.16276,42.38471],[3.16284,42.38619],[3.16697,42.38963999999999],[3.16315,42.39166999999999],[3.1597,42.388939999999984],[3.15374,42.3912],[3.1527,42.39367000000001],[3.1648000000000005,42.401],[3.1623,42.40445999999999],[3.15831,42.404900000000005],[3.1573300000000004,42.403560000000006],[3.15596,42.40715999999999],[3.16145,42.40914000000001],[3.16209,42.411359999999995],[3.16558,42.41141],[3.16488,42.41335999999999],[3.17073,42.416639999999994],[3.16893,42.41837999999999],[3.16983,42.42488000000001],[3.16562,42.42670999999999],[3.16796,42.42555999999999],[3.1667999999999994,42.42498],[3.16353,42.427299999999995],[3.1616199999999997,42.42667],[3.16057,42.428200000000004],[3.1629700000000005,42.429809999999996],[3.1685599999999994,42.43032],[3.1749699999999996,42.434979999999996],[3.1640600000000005,42.436],[3.1481400000000006,42.43396],[3.1214500000000003,42.43693],[3.1112700000000006,42.43535000000001],[3.10381,42.42974],[3.1026699999999994,42.42659],[3.0988700000000002,42.42515000000001],[3.0857200000000002,42.42559999999999],[3.0805299999999995,42.42849999999999],[3.0748500000000005,42.43522000000001],[3.0693,42.43795],[3.06705,42.44257999999999],[3.0585099999999996,42.445669999999986],[3.05416,42.44996999999999],[3.04859,42.45606000000001],[3.0405000000000006,42.473459999999996],[3.0318199999999997,42.47492],[3.0123299999999995,42.46685000000001],[2.99987,42.47332999999999],[2.9888,42.47402],[2.98244,42.471799999999995],[2.97969,42.46735],[2.96741,42.46549999999999],[2.95707,42.47547000000001],[2.94652,42.48100000000001],[2.9319,42.47418],[2.9263600000000003,42.46577],[2.9245099999999997,42.45855],[2.91752,42.45628],[2.9049599999999995,42.45692],[2.8914699999999995,42.46200999999999],[2.88612,42.4598],[2.8822400000000004,42.46048999999999],[2.8765199999999997,42.46554],[2.87048,42.46743000000001],[2.8644200000000004,42.46435999999999],[2.86161,42.455009999999994],[2.85675,42.45406],[2.8390900000000006,42.45940999999999],[2.83274,42.45269],[2.83349,42.44823],[2.82771,42.43956],[2.8251200000000005,42.43884],[2.81863,42.44051999999999],[2.8051900000000005,42.43200999999999],[2.8009299999999997,42.42394000000001],[2.8023000000000002,42.420629999999996],[2.8008400000000004,42.41846],[2.78502,42.41729999999999],[2.77993,42.414170000000006],[2.77032,42.41177],[2.76151,42.41747999999998],[2.75805,42.42294],[2.7527500000000003,42.42633],[2.7170800000000006,42.42151999999999],[2.7031500000000004,42.41149999999999],[2.69446,42.4076],[2.6743399999999995,42.40498],[2.6713,42.40235999999999],[2.6734,42.39917],[2.6703600000000005,42.38733],[2.66573,42.38562],[2.65195,42.38888],[2.6514000000000006,42.38658999999999],[2.66118,42.37731000000001],[2.66245,42.37263],[2.66088,42.36602000000001],[2.6655299999999995,42.36261999999999],[2.67086,42.361069999999984],[2.67485,42.35707],[2.6765899999999996,42.3464],[2.6755000000000004,42.342409999999994],[2.6717499999999994,42.34087],[2.6559499999999994,42.34144],[2.6515000000000004,42.343810000000005],[2.6386400000000005,42.343689999999995],[2.63312,42.34581999999999],[2.61844,42.34554],[2.60516,42.348859999999995],[2.5853800000000002,42.3572],[2.5663400000000003,42.35813999999999],[2.56187,42.36113],[2.56172,42.35589],[2.5540300000000005,42.35316],[2.55395,42.346329999999995],[2.5514600000000005,42.34224999999999],[2.54407,42.337619999999994],[2.5410400000000006,42.333589999999994],[2.53265,42.332919999999994],[2.52652,42.33341999999999],[2.5109000000000004,42.33827],[2.50075,42.34288],[2.49244,42.342589999999994],[2.4835600000000007,42.339949999999995],[2.4809200000000002,42.341029999999996],[2.47351,42.34892000000001],[2.46629,42.360569999999996],[2.45735,42.36331],[2.45357,42.36967],[2.4457500000000003,42.36961],[2.4334800000000003,42.377159999999996],[2.4353299999999996,42.38517],[2.43331,42.39416],[2.4161200000000003,42.39220000000001],[2.40705,42.39285],[2.3962400000000006,42.395149999999994],[2.3854800000000003,42.40037999999999],[2.3696299999999995,42.40093999999999],[2.3481500000000004,42.40742999999999],[2.34527,42.41015999999999],[2.34595,42.41530000000001],[2.3439799999999997,42.41688],[2.3318900000000005,42.41576],[2.32443,42.41767],[2.3190600000000003,42.421800000000005],[2.3185400000000005,42.425129999999996],[2.3123900000000006,42.42832],[2.3065299999999995,42.42864000000001],[2.3005,42.42388],[2.2915900000000002,42.42312],[2.27295,42.43354],[2.2679700000000005,42.43375999999999],[2.2571099999999995,42.43861],[2.2521599999999995,42.43664999999999],[2.24641,42.428920000000005],[2.23345,42.42612],[2.22433,42.42591999999999],[2.20145,42.41643999999999],[2.1791400000000003,42.419230000000006],[2.16931,42.423539999999996],[2.1488700000000005,42.42093999999999],[2.1292,42.41282000000001],[2.1255700000000006,42.40979999999999],[2.1218499999999993,42.39987],[2.1148400000000005,42.39449],[2.1165,42.38324],[2.0903700000000005,42.374],[2.0848600000000004,42.36193],[2.0805099999999994,42.36471999999999],[2.0724,42.36487999999999],[2.0598199999999998,42.35827999999999],[2.0233600000000003,42.355599999999995],[2.01606,42.34709],[2.0056600000000007,42.353880000000004],[1.9864100000000002,42.36193],[1.9791700000000005,42.3716],[1.9724199999999998,42.373329999999996],[1.9657200000000006,42.38066999999999],[1.9602200000000005,42.392950000000006],[1.9597199999999995,42.40523],[1.9551100000000001,42.41161000000001],[1.9585699999999997,42.42414],[1.940960000000001,42.430029999999995],[1.94291,42.44445],[1.9369900000000002,42.453689999999995],[1.9327199999999998,42.454640000000005],[1.9207500000000002,42.44694],[1.9163,42.446239999999996],[1.8982000000000003,42.450010000000006],[1.8957500000000007,42.447589999999984],[1.8911700000000002,42.44772],[1.8846100000000001,42.4498],[1.8811400000000007,42.45983],[1.8647000000000002,42.46625999999999],[1.8622100000000001,42.465979999999995],[1.8595200000000005,42.46247],[1.8555499999999998,42.46369],[1.8491600000000001,42.46764999999999],[1.84178,42.47744],[1.82424,42.48566999999999],[1.8167200000000001,42.48316],[1.80802,42.48691000000001],[1.8046100000000003,42.4901],[1.7919500000000006,42.48550999999999],[1.7626700000000004,42.48677],[1.7609200000000005,42.48925],[1.7461499999999996,42.49548000000001],[1.7301,42.49239],[1.72566,42.50467999999999],[1.7113700000000005,42.49226000000001],[1.70361,42.489799999999995],[1.6903199999999996,42.494949999999996],[1.6794800000000003,42.494679999999995],[1.6699800000000007,42.504189999999994],[1.6620500000000002,42.492479999999986],[1.66251,42.474450000000004],[1.65702,42.468219999999995],[1.6531500000000001,42.46695999999999],[1.6382200000000002,42.46723999999999],[1.6311100000000003,42.46468],[1.6138800000000002,42.46542000000001],[1.6072900000000006,42.46442999999999],[1.6001500000000004,42.466800000000006],[1.59737,42.466319999999996],[1.5859600000000003,42.4606],[1.5818100000000004,42.45154999999999],[1.57919,42.44971999999999],[1.5735000000000001,42.45277999999999],[1.5674500000000002,42.45888],[1.5616400000000006,42.45821999999999],[1.5562300000000007,42.454130000000006],[1.56023,42.44899],[1.55294,42.44337999999999],[1.5542800000000008,42.440059999999995],[1.5520000000000005,42.43259],[1.52823,42.43203],[1.5163900000000001,42.42885],[1.4988100000000002,42.433119999999995],[1.4551800000000004,42.436049999999994],[1.4472300000000002,42.43944],[1.4425800000000002,42.44470999999999],[1.4468000000000003,42.44377],[1.44615,42.4481],[1.4411700000000007,42.45545],[1.4475300000000002,42.460069999999995],[1.4421600000000008,42.463339999999995],[1.4406300000000003,42.46607],[1.4410299999999996,42.47547999999999],[1.4333500000000001,42.48187],[1.4189700000000005,42.4828],[1.4191400000000003,42.48394999999999],[1.4255600000000004,42.49315],[1.4433400000000003,42.49521999999999],[1.4679999999999997,42.50995],[1.4553000000000005,42.528359999999985],[1.4524700000000001,42.53374],[1.4525000000000003,42.53863],[1.4505500000000002,42.53989],[1.43883,42.54346000000001],[1.4136400000000007,42.53535],[1.4143400000000004,42.53996999999999],[1.4240900000000005,42.55693999999999],[1.4395000000000002,42.56363],[1.4444799999999993,42.56862],[1.4434100000000007,42.571920000000006],[1.4321400000000002,42.57534999999999],[1.4264800000000006,42.58279999999999],[1.4273499999999997,42.58666999999999],[1.4400600000000003,42.59425999999999],[1.4430200000000004,42.60276],[1.4369900000000002,42.603469999999994],[1.4305900000000005,42.61151000000001],[1.42787,42.620229999999985],[1.4206300000000003,42.62479],[1.4137600000000001,42.65523999999999],[1.4032500000000006,42.65923],[1.40007,42.66542999999999],[1.3964000000000003,42.66827999999999],[1.3874700000000009,42.66862],[1.387010000000001,42.67802999999999],[1.3891799999999999,42.68708],[1.3772400000000002,42.69464000000001],[1.36702,42.69509999999998],[1.3526499999999995,42.70082000000001],[1.3510600000000001,42.70365],[1.3524200000000004,42.71113999999999],[1.3578100000000006,42.71521],[1.357320000000001,42.719459999999984],[1.3396899999999996,42.71895],[1.3370499999999996,42.719660000000005],[1.3349900000000003,42.724349999999994],[1.3323200000000006,42.72476000000001],[1.3247300000000004,42.72381],[1.3183899999999997,42.72018],[1.3108999999999997,42.71818],[1.2971300000000008,42.719329999999985],[1.27876,42.71410000000001],[1.27479,42.718740000000004],[1.26885,42.71826999999999],[1.265660000000001,42.71551999999999],[1.2528999999999995,42.71482999999999],[1.2473100000000004,42.72252000000001],[1.2335899999999997,42.72624],[1.2270900000000007,42.72621],[1.2156700000000003,42.72010999999999],[1.1880700000000004,42.71629],[1.1766399999999995,42.71116],[1.1751300000000005,42.70869999999999],[1.1704700000000001,42.70793],[1.1534100000000005,42.71629],[1.1483899999999996,42.72151],[1.1333900000000006,42.72808],[1.1343800000000008,42.73429],[1.1303800000000002,42.7407],[1.1320300000000005,42.75082],[1.1288200000000006,42.75468999999999],[1.11916,42.76348999999999],[1.1134999999999997,42.76509],[1.1093700000000002,42.76999000000001],[1.0886500000000003,42.77805000000001],[1.0788699999999998,42.78833000000001],[1.0770000000000006,42.78804999999999],[1.0745099999999999,42.783680000000004],[1.0474699999999995,42.78102],[1.0438400000000003,42.7811],[1.0426400000000005,42.78236999999999],[1.0440900000000004,42.78449],[1.0414600000000003,42.78612],[1.0170800000000002,42.78705],[1.0054599999999998,42.79084999999999],[0.9944000000000004,42.787009999999995],[0.9841,42.78669999999999],[0.9770899999999998,42.79133000000001],[0.9786500000000009,42.793049999999994],[0.9776200000000002,42.79484999999999],[0.9660000000000006,42.80364000000001],[0.9602300000000005,42.805899999999994],[0.9470000000000004,42.80118000000001],[0.9393499999999998,42.79668000000001],[0.9331100000000003,42.78954999999999],[0.9260199999999998,42.789449999999995],[0.9113699999999996,42.79653],[0.8860999999999998,42.812580000000004],[0.8686700000000006,42.817069999999994],[0.8538700000000004,42.82683999999999],[0.846230000000001,42.82863999999999],[0.8337700000000002,42.8284],[0.8156500000000004,42.837089999999996],[0.8015100000000006,42.8406],[0.7963000000000002,42.84003],[0.78979,42.83646],[0.7770900000000007,42.83621999999999],[0.76605,42.839389999999995],[0.7611800000000003,42.842819999999996],[0.73632,42.848949999999995],[0.7345000000000009,42.854360000000014],[0.7280899999999996,42.857229999999994]],[[2.15255,41.31643],[2.15047,41.31763999999999],[2.1533599999999997,41.32090999999999],[2.15214,41.32163],[2.1538500000000003,41.321929999999995],[2.15648,41.320159999999994],[2.15255,41.31643]],[[1.2471800000000002,41.10581],[1.2396200000000004,41.107289999999985],[1.2434000000000005,41.10985],[1.2490999999999999,41.10864],[1.2471800000000002,41.10581]],[[2.15415,41.338969999999996],[2.15433,41.33872999999999],[2.1540500000000002,41.33878],[2.15415,41.338969999999996]],[[2.15471,41.33948999999999],[2.15472,41.33937],[2.15465,41.33939000000001],[2.15471,41.33948999999999]]]]},"properties":{"NOMCAT":"Catalunya"}}]}